{"type": "FeatureCollection", "features": [ {"type": "Feature", "properties": {"norad_id": 31477, "name": "FENGYUN 1C DEB", "group": "fengyun-1c-debris", "lat": 6.341910121241626, "lon": -18.457130000745533, "alt_km": 806.1445069977244, "timestamp": "2025-12-18T23:35:49.343255+00:00", "meta": {"OBJECT_NAME": "FENGYUN 1C DEB", "OBJECT_ID": "1999-025BVR", "EPOCH": "2025-12-17T09:54:40.666752", "MEAN_MOTION": 14.02927748, "ECCENTRICITY": 0.01099262, "INCLINATION": 98.8859, "RA_OF_ASC_NODE": 341.0064, "ARG_OF_PERICENTER": 15.8832, "MEAN_ANOMALY": 344.5738, "EPHEMERIS_TYPE": 0, "CLASSIFICATION_TYPE": "U", "NORAD_CAT_ID": 31477, "ELEMENT_SET_NO": 999, "REV_AT_EPOCH": 95469, "BSTAR": 0.00034385899, "MEAN_MOTION_DOT": 5.19e-06, "MEAN_MOTION_DDOT": 0}, "tle": {"line1": "1 31477U 99025BVR 25351.41297068  .00000519  00000+0  34386-3 0  9991", "line2": "2 31477  98.8859 341.0064 0109926  15.8832 344.5738 14.02927748954694"}}, "geometry": {"type": "Point", "coordinates": [-18.457130000745533, 6.341910121241626]}}, {"type": "Feature", "properties": {"norad_id": 31480, "name": "FENGYUN 1C DEB", "group": "fengyun-1c-debris", "lat": 78.97693851672072, "lon": 72.3602310756747, "alt_km": 985.9041040416305, "timestamp": "2025-12-18T23:35:49.343266+00:00", "meta": {"OBJECT_NAME": "FENGYUN 1C DEB", "OBJECT_ID": "1999-025BVU", "EPOCH": "2025-12-18T07:33:21.758688", "MEAN_MOTION": 13.89983358, "ECCENTRICITY": 0.03442469, "INCLINATION": 98.3385, "RA_OF_ASC_NODE": 202.9182, "ARG_OF_PERICENTER": 205.8469, "MEAN_ANOMALY": 152.5139, "EPHEMERIS_TYPE": 0, "CLASSIFICATION_TYPE": "U", "NORAD_CAT_ID": 31480, "ELEMENT_SET_NO": 999, "REV_AT_EPOCH": 93473, "BSTAR": 0.0023141979, "MEAN_MOTION_DOT": 4.565e-05, "MEAN_MOTION_DDOT": 0}, "tle": {"line1": "1 31480U 99025BVU 25352.31483517  .00004565  00000+0  23142-2 0  9993", "line2": "2 31480  98.3385 202.9182 0344246 205.8469 152.5139 13.89983358934734"}}, "geometry": {"type": "Point", "coordinates": [72.3602310756747, 78.97693851672072]}}, {"type": "Feature", "properties": {"norad_id": 31482, "name": "FENGYUN 1C DEB", "group": "fengyun-1c-debris", "lat": 64.99843418548944, "lon": -164.90321971627316, "alt_km": 821.185796274418, "timestamp": "2025-12-18T23:35:49.343277+00:00", "meta": {"OBJECT_NAME": "FENGYUN 1C DEB", "OBJECT_ID": "1999-025BVW", "EPOCH": "2025-12-17T20:51:28.256256", "MEAN_MOTION": 14.35679302, "ECCENTRICITY": 0.00887385, "INCLINATION": 98.382, "RA_OF_ASC_NODE": 355.5826, "ARG_OF_PERICENTER": 266.7875, "MEAN_ANOMALY": 212.3024, "EPHEMERIS_TYPE": 0, "CLASSIFICATION_TYPE": "U", "NORAD_CAT_ID": 31482, "ELEMENT_SET_NO": 999, "REV_AT_EPOCH": 97203, "BSTAR": 0.00056861308, "MEAN_MOTION_DOT": 1.672e-05, "MEAN_MOTION_DDOT": 0}, "tle": {"line1": "1 31482U 99025BVW 25351.86907704  .00001672  00000+0  56861-3 0  9994", "line2": "2 31482  98.3820 355.5826 0088738 266.7875 212.3024 14.35679302972034"}}, "geometry": {"type": "Point", "coordinates": [-164.90321971627316, 64.99843418548944]}}, {"type": "Feature", "properties": {"norad_id": 31483, "name": "FENGYUN 1C DEB", "group": "fengyun-1c-debris", "lat": -64.03755945112225, "lon": 98.6331845450092, "alt_km": 781.2193233842645, "timestamp": "2025-12-18T23:35:49.343288+00:00", "meta": {"OBJECT_NAME": "FENGYUN 1C DEB", "OBJECT_ID": "1999-025BVX", "EPOCH": "2025-12-17T08:11:59.820576", "MEAN_MOTION": 14.16086223, "ECCENTRICITY": 0.01183204, "INCLINATION": 102.5034, "RA_OF_ASC_NODE": 303.4486, "ARG_OF_PERICENTER": 209.5612, "MEAN_ANOMALY": 312.1309, "EPHEMERIS_TYPE": 0, "CLASSIFICATION_TYPE": "U", "NORAD_CAT_ID": 31483, "ELEMENT_SET_NO": 999, "REV_AT_EPOCH": 94771, "BSTAR": 0.002207547, "MEAN_MOTION_DOT": 4.597e-05, "MEAN_MOTION_DDOT": 0}, "tle": {"line1": "1 31483U 99025BVX 25351.34166459  .00004597  00000+0  22075-2 0  9990", "line2": "2 31483 102.5034 303.4486 0118320 209.5612 312.1309 14.16086223947714"}}, "geometry": {"type": "Point", "coordinates": [98.6331845450092, -64.03755945112225]}}, {"type": "Feature", "properties": {"norad_id": 31484, "name": "FENGYUN 1C DEB", "group": "fengyun-1c-debris", "lat": -37.10294948812172, "lon": -59.04356376175661, "alt_km": 788.3927199898226, "timestamp": "2025-12-18T23:35:49.343298+00:00", "meta": {"OBJECT_NAME": "FENGYUN 1C DEB", "OBJECT_ID": "1999-025BVY", "EPOCH": "2025-12-16T07:12:51.702624", "MEAN_MOTION": 14.50534743, "ECCENTRICITY": 0.0083054, "INCLINATION": 101.8044, "RA_OF_ASC_NODE": 288.1066, "ARG_OF_PERICENTER": 142.077, "MEAN_ANOMALY": 218.6301, "EPHEMERIS_TYPE": 0, "CLASSIFICATION_TYPE": "U", "NORAD_CAT_ID": 31484, "ELEMENT_SET_NO": 999, "REV_AT_EPOCH": 64289, "BSTAR": 0.0030623043, "MEAN_MOTION_DOT": 0.00012484, "MEAN_MOTION_DDOT": 0}, "tle": {"line1": "1 31484U 99025BVY 25350.30059841  .00012484  00000+0  30623-2 0  9994", "line2": "2 31484 101.8044 288.1066 0083054 142.0770 218.6301 14.50534743642898"}}, "geometry": {"type": "Point", "coordinates": [-59.04356376175661, -37.10294948812172]}}, {"type": "Feature", "properties": {"norad_id": 31485, "name": "FENGYUN 1C DEB", "group": "fengyun-1c-debris", "lat": 75.93734825184497, "lon": 66.16636930019172, "alt_km": 1388.873635991028, "timestamp": "2025-12-18T23:35:49.343309+00:00", "meta": {"OBJECT_NAME": "FENGYUN 1C DEB", "OBJECT_ID": "1999-025BVZ", "EPOCH": "2025-12-17T11:16:40.767456", "MEAN_MOTION": 13.40067118, "ECCENTRICITY": 0.04461213, "INCLINATION": 102.7175, "RA_OF_ASC_NODE": 179.9125, "ARG_OF_PERICENTER": 308.7159, "MEAN_ANOMALY": 47.4857, "EPHEMERIS_TYPE": 0, "CLASSIFICATION_TYPE": "U", "NORAD_CAT_ID": 31485, "ELEMENT_SET_NO": 999, "REV_AT_EPOCH": 90508, "BSTAR": 0.0022325074, "MEAN_MOTION_DOT": 2.114e-05, "MEAN_MOTION_DDOT": 0}, "tle": {"line1": "1 31485U 99025BVZ 25351.46991629  .00002114  00000+0  22325-2 0  9991", "line2": "2 31485 102.7175 179.9125 0446121 308.7159  47.4857 13.40067118905089"}}, "geometry": {"type": "Point", "coordinates": [66.16636930019172, 75.93734825184497]}}, {"type": "Feature", "properties": {"norad_id": 31487, "name": "FENGYUN 1C DEB", "group": "fengyun-1c-debris", "lat": 64.84982233311226, "lon": 135.64104674172336, "alt_km": 958.2929088670535, "timestamp": "2025-12-18T23:35:49.343319+00:00", "meta": {"OBJECT_NAME": "FENGYUN 1C DEB", "OBJECT_ID": "1999-025BWB", "EPOCH": "2025-12-17T18:08:34.599264", "MEAN_MOTION": 13.97752713, "ECCENTRICITY": 0.01207253, "INCLINATION": 102.4129, "RA_OF_ASC_NODE": 161.9631, "ARG_OF_PERICENTER": 294.4769, "MEAN_ANOMALY": 80.0779, "EPHEMERIS_TYPE": 0, "CLASSIFICATION_TYPE": "U", "NORAD_CAT_ID": 31487, "ELEMENT_SET_NO": 999, "REV_AT_EPOCH": 94482, "BSTAR": 0.0013053066, "MEAN_MOTION_DOT": 1.89e-05, "MEAN_MOTION_DDOT": 0}, "tle": {"line1": "1 31487U 99025BWB 25351.75595601  .00001890  00000+0  13053-2 0  9993", "line2": "2 31487 102.4129 161.9631 0120725 294.4769  80.0779 13.97752713944822"}}, "geometry": {"type": "Point", "coordinates": [135.64104674172336, 64.84982233311226]}}, {"type": "Feature", "properties": {"norad_id": 31491, "name": "FENGYUN 1C DEB", "group": "fengyun-1c-debris", "lat": -15.30685860772396, "lon": -95.5493164709438, "alt_km": 841.2429449606716, "timestamp": "2025-12-18T23:35:49.343330+00:00", "meta": {"OBJECT_NAME": "FENGYUN 1C DEB", "OBJECT_ID": "1999-025BWE", "EPOCH": "2025-12-18T05:01:58.636416", "MEAN_MOTION": 14.1729953, "ECCENTRICITY": 0.00511133, "INCLINATION": 99.3072, "RA_OF_ASC_NODE": 261.0688, "ARG_OF_PERICENTER": 253.212, "MEAN_ANOMALY": 106.3442, "EPHEMERIS_TYPE": 0, "CLASSIFICATION_TYPE": "U", "NORAD_CAT_ID": 31491, "ELEMENT_SET_NO": 999, "REV_AT_EPOCH": 63805, "BSTAR": 0.0014383052, "MEAN_MOTION_DOT": 2.896e-05, "MEAN_MOTION_DDOT": 0}, "tle": {"line1": "1 31491U 99025BWE 25352.20970644  .00002896  00000+0  14383-2 0  9997", "line2": "2 31491  99.3072 261.0688 0051113 253.2120 106.3442 14.17299530638050"}}, "geometry": {"type": "Point", "coordinates": [-95.5493164709438, -15.30685860772396]}}, {"type": "Feature", "properties": {"norad_id": 31492, "name": "FENGYUN 1C DEB", "group": "fengyun-1c-debris", "lat": -0.9630546602412698, "lon": 159.69000326811482, "alt_km": 616.2844727912234, "timestamp": "2025-12-18T23:35:49.343340+00:00", "meta": {"OBJECT_NAME": "FENGYUN 1C DEB", "OBJECT_ID": "1999-025BWF", "EPOCH": "2025-12-17T10:03:11.000448", "MEAN_MOTION": 14.70935194, "ECCENTRICITY": 0.00645141, "INCLINATION": 98.8575, "RA_OF_ASC_NODE": 157.8403, "ARG_OF_PERICENTER": 354.4182, "MEAN_ANOMALY": 5.6296, "EPHEMERIS_TYPE": 0, "CLASSIFICATION_TYPE": "U", "NORAD_CAT_ID": 31492, "ELEMENT_SET_NO": 999, "REV_AT_EPOCH": 96575, "BSTAR": 0.0023655093, "MEAN_MOTION_DOT": 0.00014935, "MEAN_MOTION_DDOT": 0}, "tle": {"line1": "1 31492U 99025BWF 25351.41887732  .00014935  00000+0  23655-2 0  9994", "line2": "2 31492  98.8575 157.8403 0064514 354.4182   5.6296 14.70935194965751"}}, "geometry": {"type": "Point", "coordinates": [159.69000326811482, -0.9630546602412698]}}, {"type": "Feature", "properties": {"norad_id": 31493, "name": "FENGYUN 1C DEB", "group": "fengyun-1c-debris", "lat": 4.009365044483088, "lon": -61.255293429713134, "alt_km": 997.6665245604763, "timestamp": "2025-12-18T23:35:49.343350+00:00", "meta": {"OBJECT_NAME": "FENGYUN 1C DEB", "OBJECT_ID": "1999-025BWG", "EPOCH": "2025-12-12T02:05:14.361792", "MEAN_MOTION": 13.92967952, "ECCENTRICITY": 0.01169776, "INCLINATION": 100.136, "RA_OF_ASC_NODE": 291.9196, "ARG_OF_PERICENTER": 177.3499, "MEAN_ANOMALY": 182.8302, "EPHEMERIS_TYPE": 0, "CLASSIFICATION_TYPE": "U", "NORAD_CAT_ID": 31493, "ELEMENT_SET_NO": 999, "REV_AT_EPOCH": 59857, "BSTAR": 0.0010865995, "MEAN_MOTION_DOT": 1.441e-05, "MEAN_MOTION_DDOT": 0}, "tle": {"line1": "1 31493U 99025BWG 25346.08697178  .00001441  00000+0  10866-2 0  9993", "line2": "2 31493 100.1360 291.9196 0116977 177.3499 182.8302 13.92967952598572"}}, "geometry": {"type": "Point", "coordinates": [-61.255293429713134, 4.009365044483088]}}]}